{
  "norad_id": 65723,
  "name": "GEESAT-6 11",
  "history": [
    {
      "epoch": "2026-03-28T21:32:16.956672Z",
      "apogee_km": 626.6410318497556,
      "perigee_km": 612.5085930275909,
      "latitude_deg": -6.485824730244096e-05,
      "longitude_deg": 170.50162109943813,
      "height_km": 619.4505230830905,
      "semi_major_axis_km": 6997.711812438673,
      "eccentricity": 0.00100979,
      "inclination_deg": 49.9835,
      "raan_deg": 319.8836,
      "arg_perigee_deg": 275.4483,
      "mean_anomaly_deg": 84.5302,
      "mean_motion_rev_day": 14.83094016
    },
    {
      "epoch": "2026-03-29T04:00:22.823712Z",
      "apogee_km": 626.6318445968882,
      "perigee_km": 612.4992844975286,
      "latitude_deg": -7.585157222502349e-06,
      "longitude_deg": 71.96327947509249,
      "height_km": 619.3084260318203,
      "semi_major_axis_km": 6997.702564547208,
      "eccentricity": 0.0010098,
      "inclination_deg": 49.9834,
      "raan_deg": 318.6353,
      "arg_perigee_deg": 276.5314,
      "mean_anomaly_deg": 83.4474,
      "mean_motion_rev_day": 14.83096956
    }
  ]
}